{
  "type": "FeatureCollection",
  "features": [
    {
      "type": "Feature",
      "properties": {
        "norad_id": 46805,
        "name": "COSMOS 2547 (705K)",
        "group": "glo-ops",
        "lat": 61.26593164992809,
        "lon": -41.06321960239512,
        "alt_km": 19132.799064784078,
        "timestamp": "2025-12-03T20:47:58.484701+00:00",
        "meta_object_name": "COSMOS 2547 (705K)",
        "meta_object_id": "2020-075A",
        "meta_epoch": "2025-11-30T21:58:22.930752",
        "meta_mean_motion": 2.13099889,
        "meta_eccentricity": 0.00063143,
        "meta_inclination": 64.5957,
        "meta_ra_of_asc_node": 199.0914,
        "meta_arg_of_pericenter": 229.6069,
        "meta_mean_anomaly": 130.4292,
        "meta_ephemeris_type": 0,
        "meta_classification_type": "U",
        "meta_norad_cat_id": 46805,
        "meta_element_set_no": 999,
        "meta_rev_at_epoch": 3968,
        "meta_bstar": 0,
        "meta_mean_motion_dot": 9.8e-07,
        "meta_mean_motion_ddot": 0,
        "tle_line1": "1 46805U 20075A   25334.91554318  .00000098  00000+0  00000+0 0  9995",
        "tle_line2": "2 46805  64.5957 199.0914 0006314 229.6069 130.4292  2.13099889 39688"
      },
      "geometry": {
        "type": "Point",
        "coordinates": [
          -41.06321960239512,
          61.26593164992809
        ]
      }
    },
    {
      "type": "Feature",
      "properties": {
        "norad_id": 52984,
        "name": "COSMOS 2557 (706K)",
        "group": "glo-ops",
        "lat": -20.51544018703201,
        "lon": -48.974268635956015,
        "alt_km": 19115.785288684856,
        "timestamp": "2025-12-03T20:47:58.484713+00:00",
        "meta_object_name": "COSMOS 2557 (706K)",
        "meta_object_id": "2022-075A",
        "meta_epoch": "2025-12-01T01:56:28.375008",
        "meta_mean_motion": 2.13101767,
        "meta_eccentricity": 0.00137561,
        "meta_inclination": 64.4163,
        "meta_ra_of_asc_node": 321.4618,
        "meta_arg_of_pericenter": 276.3647,
        "meta_mean_anomaly": 83.4921,
        "meta_ephemeris_type": 0,
        "meta_classification_type": "U",
        "meta_norad_cat_id": 52984,
        "meta_element_set_no": 999,
        "meta_rev_at_epoch": 2649,
        "meta_bstar": 0,
        "meta_mean_motion_dot": -2.7e-07,
        "meta_mean_motion_ddot": 0,
        "tle_line1": "1 52984U 22075A   25335.08088397 -.00000027  00000+0  00000+0 0  9993",
        "tle_line2": "2 52984  64.4163 321.4618 0013756 276.3647  83.4921  2.13101767 26492"
      },
      "geometry": {
        "type": "Point",
        "coordinates": [
          -48.974268635956015,
          -20.51544018703201
        ]
      }
    },
    {
      "type": "Feature",
      "properties": {
        "norad_id": 54031,
        "name": "COSMOS 2559 (707K)",
        "group": "glo-ops",
        "lat": 54.287633736495145,
        "lon": 99.57963406547917,
        "alt_km": 19116.926626793058,
        "timestamp": "2025-12-03T20:47:58.484724+00:00",
        "meta_object_name": "COSMOS 2559 (707K)",
        "meta_object_id": "2022-130A",
        "meta_epoch": "2025-12-03T05:54:42.850656",
        "meta_mean_motion": 2.13101242,
        "meta_eccentricity": 0.0012048,
        "meta_inclination": 64.3873,
        "meta_ra_of_asc_node": 321.4753,
        "meta_arg_of_pericenter": 192.7685,
        "meta_mean_anomaly": 167.2057,
        "meta_ephemeris_type": 0,
        "meta_classification_type": "U",
        "meta_norad_cat_id": 54031,
        "meta_element_set_no": 999,
        "meta_rev_at_epoch": 2451,
        "meta_bstar": 0,
        "meta_mean_motion_dot": -4.1e-07,
        "meta_mean_motion_ddot": 0,
        "tle_line1": "1 54031U 22130A   25337.24632929 -.00000041  00000+0  00000+0 0  9992",
        "tle_line2": "2 54031  64.3873 321.4753 0012048 192.7685 167.2057  2.13101242 24510"
      },
      "geometry": {
        "type": "Point",
        "coordinates": [
          99.57963406547917,
          54.287633736495145
        ]
      }
    },
    {
      "type": "Feature",
      "properties": {
        "norad_id": 54377,
        "name": "COSMOS 2564 (761)",
        "group": "glo-ops",
        "lat": -48.1069412505575,
        "lon": 50.94742252667369,
        "alt_km": 19116.08732623697,
        "timestamp": "2025-12-03T20:47:58.484736+00:00",
        "meta_object_name": "COSMOS 2564 (761)",
        "meta_object_id": "2022-161A",
        "meta_epoch": "2025-12-03T13:26:12.799968",
        "meta_mean_motion": 2.13101953,
        "meta_eccentricity": 0.0008712,
        "meta_inclination": 64.7377,
        "meta_ra_of_asc_node": 199.204,
        "meta_arg_of_pericenter": 206.2121,
        "meta_mean_anomaly": 153.8409,
        "meta_ephemeris_type": 0,
        "meta_classification_type": "U",
        "meta_norad_cat_id": 54377,
        "meta_element_set_no": 999,
        "meta_rev_at_epoch": 2346,
        "meta_bstar": 0,
        "meta_mean_motion_dot": 1.05e-06,
        "meta_mean_motion_ddot": 0,
        "tle_line1": "1 54377U 22161A   25337.55987037  .00000105  00000+0  00000+0 0  9996",
        "tle_line2": "2 54377  64.7377 199.2040 0008712 206.2121 153.8409  2.13101953 23469"
      },
      "geometry": {
        "type": "Point",
        "coordinates": [
          50.94742252667369,
          -48.1069412505575
        ]
      }
    },
    {
      "type": "Feature",
      "properties": {
        "norad_id": 57517,
        "name": "COSMOS 2569 (703K)",
        "group": "glo-ops",
        "lat": -39.87046628291598,
        "lon": -78.09476542685601,
        "alt_km": 19122.72141015779,
        "timestamp": "2025-12-03T20:47:58.484747+00:00",
        "meta_object_name": "COSMOS 2569 (703K)",
        "meta_object_id": "2023-114A",
        "meta_epoch": "2025-12-01T05:26:50.828352",
        "meta_mean_motion": 2.13103848,
        "meta_eccentricity": 0.0010073,
        "meta_inclination": 65.188,
        "meta_ra_of_asc_node": 79.3026,
        "meta_arg_of_pericenter": 287.0136,
        "meta_mean_anomaly": 72.876,
        "meta_ephemeris_type": 0,
        "meta_classification_type": "U",
        "meta_norad_cat_id": 57517,
        "meta_element_set_no": 999,
        "meta_rev_at_epoch": 1804,
        "meta_bstar": 0,
        "meta_mean_motion_dot": -1.2e-07,
        "meta_mean_motion_ddot": 0,
        "tle_line1": "1 57517U 23114A   25335.22697718 -.00000012  00000+0  00000+0 0  9998",
        "tle_line2": "2 57517  65.1880  79.3026 0010073 287.0136  72.8760  2.13103848 18043"
      },
      "geometry": {
        "type": "Point",
        "coordinates": [
          -78.09476542685601,
          -39.87046628291598
        ]
      }
    },
    {
      "type": "Feature",
      "properties": {
        "norad_id": 63130,
        "name": "COSMOS 2584 (704K)",
        "group": "glo-ops",
        "lat": -42.207482246872715,
        "lon": 54.41794187417508,
        "alt_km": 19138.283029134647,
        "timestamp": "2025-12-03T20:47:58.484759+00:00",
        "meta_object_name": "COSMOS 2584 (704K)",
        "meta_object_id": "2025-042A",
        "meta_epoch": "2025-11-26T10:06:10.904256",
        "meta_mean_motion": 2.13103062,
        "meta_eccentricity": 0.00075218,
        "meta_inclination": 64.9668,
        "meta_ra_of_asc_node": 79.7019,
        "meta_arg_of_pericenter": 212.3772,
        "meta_mean_anomaly": 147.585,
        "meta_ephemeris_type": 0,
        "meta_classification_type": "U",
        "meta_norad_cat_id": 63130,
        "meta_element_set_no": 999,
        "meta_rev_at_epoch": 572,
        "meta_bstar": 0,
        "meta_mean_motion_dot": 1.8e-07,
        "meta_mean_motion_ddot": 0,
        "tle_line1": "1 63130U 25042A   25330.42095954  .00000018  00000+0  00000+0 0  9994",
        "tle_line2": "2 63130  64.9668  79.7019 0007521 212.3772 147.5850  2.13103062  5728"
      },
      "geometry": {
        "type": "Point",
        "coordinates": [
          54.41794187417508,
          -42.207482246872715
        ]
      }
    },
    {
      "type": "Feature",
      "properties": {
        "norad_id": 65590,
        "name": "COSMOS 2596 (708K)",
        "group": "glo-ops",
        "lat": 58.64663036712365,
        "lon": 12.555904507752635,
        "alt_km": 19144.75461022318,
        "timestamp": "2025-12-03T20:47:58.484771+00:00",
        "meta_object_name": "COSMOS 2596 (708K)",
        "meta_object_id": "2025-206B",
        "meta_epoch": "2025-12-01T01:16:47.699904",
        "meta_mean_motion": 2.13100271,
        "meta_eccentricity": 0.00140756,
        "meta_inclination": 64.7507,
        "meta_ra_of_asc_node": 321.8815,
        "meta_arg_of_pericenter": 304.7151,
        "meta_mean_anomaly": 127.6712,
        "meta_ephemeris_type": 0,
        "meta_classification_type": "U",
        "meta_norad_cat_id": 65590,
        "meta_element_set_no": 999,
        "meta_rev_at_epoch": 168,
        "meta_bstar": 0,
        "meta_mean_motion_dot": -2.6e-07,
        "meta_mean_motion_ddot": 0,
        "tle_line1": "1 65590U 25206B   25335.05332986 -.00000026  00000+0  00000+0 0  9991",
        "tle_line2": "2 65590  64.7507 321.8815 0014075 304.7151 127.6712  2.13100271  1680"
      },
      "geometry": {
        "type": "Point",
        "coordinates": [
          12.555904507752635,
          58.64663036712365
        ]
      }
    }
  ]
}